     2.11           N: GPS NAV DATA                         RINEX VERSION / TYPE
teqc  2019Feb25     CORS-ADM Account    20251129 04:45:09UTCPGM / RUN BY / DATE
Linux 2.4.21-27.ELsmp|Opteron|gcc|Linux 64|=+               COMMENT
     2.10           N: GPS NAV DATA                         COMMENT
rvacn.e(1404.07)                        2025-11-29T04:42 UTCCOMMENT
This file contains the validated broadcast navigation       COMMENT
messages from the following files:                          COMMENT
abmf3290.25n, ajac3290.25n, albh3290.25n, alic3290.25n,     COMMENT
areq3290.25n, ascg3290.25n, badg3290.25n, baie3290.25n,     COMMENT
bake3290.25n, bogt3290.25n, bor13290.25n, brew3290.25n,     COMMENT
brst3290.25n, brux3290.25n, bshm3290.25n, bucu3290.25n,     COMMENT
cas13290.25n, cebr3290.25n, cedu3290.25n, chpi3290.25n,     COMMENT
chum3290.25n, chur3290.25n, ckis3290.25n, coco3290.25n,     COMMENT
cpvg3290.25n, cro13290.25n, cusv3290.25n, daej3290.25n,     COMMENT
darw3290.25n, dav13290.25n, dgar3290.25n, djig3290.25n,     COMMENT
dlf13290.25n, drao3290.25n, dubo3290.25n, dyng3290.25n,     COMMENT
faa13290.25n, fair3290.25n, falk3290.25n, flin3290.25n,     COMMENT
glps3290.25n, glsv3290.25n, gode3290.25n, godn3290.25n,     COMMENT
gold3290.25n, gras3290.25n, guam3290.25n, harb3290.25n,     COMMENT
hers3290.25n, hlfx3290.25n, hnlc3290.25n, hob23290.25n,     COMMENT
hofn3290.25n, holb3290.25n, hrao3290.25n, iisc3290.25n,     COMMENT
invk3290.25n, iqal3290.25n, irkj3290.25n, ista3290.25n,     COMMENT
joze3290.25n, jplm3290.25n, kat13290.25n, kerg3290.25n,     COMMENT
kiri3290.25n, kiru3290.25n, koug3290.25n, kour3290.25n,     COMMENT
krgg3290.25n, ksu13290.25n, laut3290.25n, lck43290.25n,     COMMENT
lmmf3290.25n, lpal3290.25n, lroc3290.25n, m0se3290.25n,     COMMENT
mac13290.25n, maju3290.25n, mal23290.25n, mar63290.25n,     COMMENT
mas13290.25n, mat13290.25n, mate3290.25n, maui3290.25n,     COMMENT
maw13290.25n, mbar3290.25n, mchl3290.25n, mcm43290.25n,     COMMENT
mdo13290.25n, medi3290.25n, met33290.25n, mkea3290.25n,     COMMENT
mobs3290.25n, mro13290.25n, nain3290.25n, nano3290.25n,     COMMENT
naur3290.25n, nico3290.25n, nist3290.25n, nium3290.25n,     COMMENT
nklg3290.25n, nlib3290.25n, nnor3290.25n, novm3290.25n,     COMMENT
nrc13290.25n, ntus3290.25n, nvsk3290.25n, onsa3290.25n,     COMMENT
orid3290.25n, p0433290.25n, palm3290.25n, pert3290.25n,     COMMENT
picl3290.25n, pie13290.25n, pimo3290.25n, pngm3290.25n,     COMMENT
pohn3290.25n, pol23290.25n, prds3290.25n, ptvl3290.25n,     COMMENT
qiki3290.25n, quin3290.25n, rdsd3290.25n, reun3290.25n,     COMMENT
reyk3290.25n, riga3290.25n, sant3290.25n, sask3290.25n,     COMMENT
sch23290.25n, scrz3290.25n, solo3290.25n, sthl3290.25n,     COMMENT
stj33290.25n, stjo3290.25n, stpm3290.25n, suth3290.25n,     COMMENT
suwn3290.25n, svtl3290.25n, sydn3290.25n, thtg3290.25n,     COMMENT
thti3290.25n, tid13290.25n, tlse3290.25n, tow23290.25n,     COMMENT
tuva3290.25n, twtf3290.25n, unbj3290.25n, usud3290.25n,     COMMENT
vacs3290.25n, vill3290.25n, vis03290.25n, vndp3290.25n,     COMMENT
warn3290.25n, whit3290.25n, will3290.25n, wsrt3290.25n,     COMMENT
wtzr3290.25n, xmis3290.25n, yar23290.25n, yarr3290.25n,     COMMENT
yebe3290.25n, yell3290.25n, zamb3290.25n, zeck3290.25n,     COMMENT
zim23290.25n, zimm3290.25n                                  COMMENT
    1.9558D-08 -1.4901D-08 -1.1921D-07  1.7881D-07          ION ALPHA
    1.2902D+05 -1.4746D+05  0.0000D+00 -6.5536D+04          ION BETA
    2.793967723846D-09 7.105427357601D-15   319488     2394 DELTA-UTC: A0,A1,T,W
                                                            END OF HEADER
22 25 11 25 10  0  0.0-7.547670975327D-05 3.410605131648D-12 0.000000000000D+00
    7.000000000000D+01 5.750000000000D+00 4.639836124941D-09 1.514498791834D+00
    2.179294824600D-07 1.248335849959D-02 6.962567567825D-06 5.153628236771D+03
    2.088000000000D+05 3.334134817123D-07 2.811999382764D+00-5.029141902924D-08
    9.583396471501D-01 2.407500000000D+02-1.010002896092D+00-7.848184051225D-09
   -2.721541934574D-10 1.000000000000D+00 2.394000000000D+03 0.000000000000D+00
    2.000000000000D+00 0.000000000000D+00-1.117587089539D-08 7.000000000000D+01
    2.016000000000D+05
23 25 11 25 10  0  0.0 5.769557319582D-04 5.343281372916D-12 0.000000000000D+00
    7.700000000000D+01-5.843750000000D+01 4.029453557200D-09-2.168800130682D+00
   -3.052875399590D-06 5.938871181570D-03 3.509223461151D-06 5.153693351746D+03
    2.088000000000D+05 8.381903171539D-08-4.410477166877D-01-1.303851604462D-07
    9.869039082348D-01 3.255312500000D+02-2.782010232156D+00-7.957117160155D-09
    7.500312418118D-12 1.000000000000D+00 2.394000000000D+03 0.000000000000D+00
    2.000000000000D+00 0.000000000000D+00-8.381903171539D-09 3.330000000000D+02
    2.016180000000D+05 4.000000000000D+00
24 25 11 25 10  0  0.0-2.249456010759D-04 1.352873368887D-11 0.000000000000D+00
    6.000000000000D+01-3.656250000000D+00 5.303078037343D-09-8.945188701757D-01
   -7.450580596924D-09 1.772852672730D-02 7.709488272667D-06 5.153655918121D+03
    2.088000000000D+05-9.313225746155D-09 1.567259878871D+00 3.650784492493D-07
    9.342218772911D-01 2.170937500000D+02 1.118947607974D+00-8.480710398486D-09
    2.246522148093D-10 1.000000000000D+00 2.394000000000D+03 0.000000000000D+00
    2.000000000000D+00 0.000000000000D+00 2.328306436539D-09 6.000000000000D+01
    2.016180000000D+05 4.000000000000D+00
25 25 11 25 10  0  0.0 4.597040824592D-04-2.160049916711D-12 0.000000000000D+00
    5.000000000000D+01-1.812500000000D+00 4.855916554130D-09-2.603178914405D+00
   -5.960464477539D-08 1.275322376750D-02 6.748363375664D-06 5.153762294769D+03
    2.088000000000D+05 1.564621925354D-07 2.698858136766D+00-5.215406417847D-08
    9.479345618508D-01 2.409375000000D+02 1.139505878708D+00-7.913901074317D-09
   -1.782217093638D-10 1.000000000000D+00 2.394000000000D+03 0.000000000000D+00
    2.000000000000D+00 0.000000000000D+00 5.587935447693D-09 5.000000000000D+01
    2.080560000000D+05 4.000000000000D+00
26 25 11 25 10  0  0.0-2.848939038813D-04-5.456968210638D-12 0.000000000000D+00
    6.000000000000D+01-4.687500000000D-01 5.346294123181D-09 2.828268907267D+00
   -1.173466444016D-07 1.078593824059D-02 6.688758730888D-06 5.153663717270D+03
    2.088000000000D+05-4.097819328308D-08 2.626196527444D+00-1.247972249985D-07
    9.286360084115D-01 2.340312500000D+02 6.811620669399D-01-8.209984835965D-09
   -2.410814705824D-10 1.000000000000D+00 2.394000000000D+03 0.000000000000D+00
    2.000000000000D+00 0.000000000000D+00 6.519258022308D-09 6.000000000000D+01
    2.016190000000D+05 4.000000000000D+00
27 25 11 25 10  0  0.0-4.131207242608D-05-5.002220859751D-12 0.000000000000D+00
    1.440000000000D+02 6.890625000000D+01 4.475543567211D-09 1.073650049560D+00
    3.609806299210D-06 1.383318181615D-02 9.151175618172D-06 5.153663045883D+03
    2.088000000000D+05-1.154839992523D-07-2.528825520785D+00 9.499490261078D-08
    9.543501890875D-01 2.014062500000D+02 8.557026664451D-01-8.106409093049D-09
   -3.589435228671D-10 1.000000000000D+00 2.394000000000D+03 0.000000000000D+00
    2.828427076340D+00 0.000000000000D+00 2.328306436539D-09 1.440000000000D+02
    2.024590000000D+05 4.000000000000D+00
28 25 11 25 10  0  0.0-6.291419267654D-04 3.069544618484D-12 0.000000000000D+00
    1.350000000000D+02-2.062500000000D+00 4.591619830825D-09-2.032427703160D+00
   -1.005828380585D-07 4.264570306987D-04 8.041039109230D-06 5.153723873138D+03
    2.088000000000D+05-5.215406417847D-08 1.647186367170D+00 3.725290298462D-09
    9.612421088036D-01 2.259375000000D+02 5.542963657428D-01-7.918901282596D-09
    2.707255625206D-10 1.000000000000D+00 2.394000000000D+03 0.000000000000D+00
    2.000000000000D+00 0.000000000000D+00-9.313225746155D-09 1.350000000000D+02
    2.016180000000D+05 4.000000000000D+00
29 25 11 25 10  0  0.0-4.199477843940D-04 5.911715561524D-12 0.000000000000D+00
    1.020000000000D+02 6.612500000000D+01 4.200889269614D-09 9.207808039536D-01
    3.479421138763D-06 3.286804421805D-03 9.072944521904D-06 5.153566822052D+03
    2.088000000000D+05 9.685754776001D-08-2.440375292021D+00 5.960464477539D-08
    9.635521456888D-01 2.055312500000D+02 2.780146489152D+00-7.834612057325D-09
   -1.385772008681D-10 1.000000000000D+00 2.394000000000D+03 0.000000000000D+00
    2.800000000000D+00 0.000000000000D+00-9.778887033463D-09 1.020000000000D+02
    2.016180000000D+05 4.000000000000D+00
30 25 11 25 10  0  0.0 3.532413393259D-05 1.182343112305D-11 0.000000000000D+00
    6.400000000000D+01-1.018750000000D+01 5.090569185497D-09-1.968322213069D+00
   -6.202608346939D-07 7.722900132649D-03 7.778406143188D-06 5.153581304550D+03
    2.088000000000D+05 9.126961231232D-08 1.666490826409D+00-6.332993507385D-08
    9.355100673608D-01 2.141562500000D+02-2.353528883753D+00-8.049978171046D-09
    3.500145795122D-10 1.000000000000D+00 2.394000000000D+03 0.000000000000D+00
    2.000000000000D+00 0.000000000000D+00 4.190951585770D-09 6.400000000000D+01
    2.016180000000D+05 4.000000000000D+00
31 25 11 25 10  0  0.0-1.811878755689D-04 1.932676241267D-12 0.000000000000D+00
    4.800000000000D+01-1.093750000000D+00 4.774484590733D-09-2.894324468620D+00
   -1.247972249985D-07 1.091461197939D-02 7.741153240204D-06 5.153743072510D+03
    2.088000000000D+05 7.078051567078D-08 1.697866886262D+00-1.341104507446D-07
    9.540748474241D-01 2.255000000000D+02 9.134170858423D-01-7.887114244252D-09
    3.042983895351D-10 1.000000000000D+00 2.394000000000D+03 0.000000000000D+00
    2.000000000000D+00 0.000000000000D+00-1.350417733192D-08 4.800000000000D+01
    2.016180000000D+05 4.000000000000D+00
